{"object":{"shortname":"433 Eros","kind":"an","orbit_id":"659","fullname":"433 Eros (A898 PA)","pha":false,"spkid":"20000433","des":"433","neo":true,"orbit_class":{"code":"AMO","name":"Amor"},"prefix":null},"signature":{"source":"NASA/JPL Small-Body Database (SBDB) API","version":"1.3"},"orbit":{"two_body":null,"rms":".29796","moid":".148798","producer":"Giorgini","comment":null,"first_obs":"1893-10-29","condition_code":"0","moid_jup":"3.2952","elements":[{"sigma":"9.3902E-9","label":"e","units":null,"title":"eccentricity","name":"e","value":".2228779627700761"},{"sigma":"1.5185E-10","label":"a","units":"au","name":"a","title":"semi-major axis","value":"1.458243716760167"},{"sigma":"1.3695E-8","label":"q","units":"au","value":"1.133233327946397","title":"perihelion distance","name":"q"},{"label":"i","sigma":"1.158E-6","name":"i","title":"inclination; angle with respect to x-y ecliptic plane","value":"10.82854410314273","units":"deg"},{"title":"longitude of the ascending node","name":"om","value":"304.2679713350896","units":"deg","label":"node","sigma":"3.5792E-6"},{"label":"peri","sigma":"3.9825E-6","title":"argument of perihelion","name":"w","value":"178.9181319135911","units":"deg"},{"label":"M","sigma":"1.4849E-6","value":"62.51145501986792","name":"ma","title":"mean anomaly","units":"deg"},{"units":"TDB","name":"tp","title":"time of perihelion passage","value":"2461088.813494039683","sigma":"2.647E-6","label":"tp"},{"value":"643.1963890927677","name":"per","title":"sidereal orbital period","units":"d","label":"period","sigma":"1.0047E-7"},{"units":"deg/d","value":".5597046347038453","title":"mean motion","name":"n","sigma":"8.7425E-11","label":"n"},{"value":"1.783254105573937","name":"ad","title":"aphelion distance","units":"au","label":"Q","sigma":"1.8569E-10"}],"data_arc":"46582","equinox":"J2000","orbit_id":"659","not_valid_before":null,"not_valid_after":null,"last_obs":"2021-05-13","n_obs_used":9130,"pe_used":"DE441","t_jup":"4.582","model_pars":[],"n_del_obs_used":4,"source":"JPL","n_dop_obs_used":2,"epoch":"2461200.5","soln_date":"2021-05-24 17:55:05","sb_used":"SB441-N16","cov_epoch":"2453311.5"}}
